0 DELTA 1 DEB
1 07149U 73086DP  13282.44992080  .00000175  00000-0  16724-2 0  1253
2 07149 102.1182 005.1801 0053342 298.2729 123.3663 12.38774789801198
0 DELTA 1 DEB
1 07149U 73086DP  13285.74708065  .00000180  00000-0  17062-2 0  1260
2 07149 102.1157 008.4454 0052631 292.4486 067.0867 12.38775808801593
0 DELTA 1 DEB
1 07149U 73086DP  13288.18239008  .00000256  00000-0  22787-2 0  1272
2 07149 102.1184 010.8706 0054271 287.5295 128.0128 12.38776844801909
0 DELTA 1 DEB
1 07149U 73086DP  13290.19490457  .00000154  00000-0  15117-2 0  1280
2 07149 102.1179 012.8686 0054595 283.8043 103.0228 12.38776381802159
0 DELTA 1 DEB
1 07149U 73086DP  13292.72680661  .00000100  00000-0  11011-2 0  1290
2 07149 102.1174 015.3818 0055102 279.1630 234.2498 12.38777125802461
0 DELTA 1 DEB
1 07149U 73086DP  13294.73904362  .00000086  00000-0  99668-3 0  1300
2 07149 102.1174 017.3794 0055509 275.5169 207.9500 12.38777510802711
